ONEWEB-0216             
1 48801U 21045AL  23364.27977928  .00000211  00000+0  52642-3 0  9997
2 48801  87.8996  78.3603 0001520 113.6105 246.5185 13.15549527127106
ONEWEB-0239             
1 48802U 21045AM  23364.28453624  .00000211  00000+0  52745-3 0  9995
2 48802  87.9002  78.3201 0002601 115.8866 244.2532 13.15548463127164
ONEWEB-0249             
1 48967U 21060A   23363.64011627  .00000049  00000+0  95549-4 0  9995
2 48967  87.9062  48.0064 0001804  98.7914 261.3421 13.16593661121117
ONEWEB-0250             
1 48968U 21060B   23364.17631607  .00000035  00000+0  56621-4 0  9994
2 48968  87.9062  47.8839 0002102 104.4755 255.6609 13.16595896122459
ONEWEB-0252             
1 48970U 21060D   23364.50775144  .00000159  00000+0  38202-3 0  9990
2 48970  87.9065  47.8264 0001665 101.3958 258.7360 13.16594965122567
ONEWEB-0253             
1 48971U 21060E   23364.49719556 -.00000036  00000+0 -12814-3 0  9991
2 48971  87.9054  47.8462 0001915 108.7850 251.3488 13.16592524122486
ONEWEB-0254             
1 48972U 21060F   23364.50563612  .00000088  00000+0  19695-3 0  9993
2 48972  87.9062  47.8168 0001925 106.5458 253.5884 13.16596519122482
ONEWEB-0255             
1 48973U 21060G   23363.63167869  .00000754  00000+0  19380-2 0  9991
2 48973  87.9064  48.0266 0001777  78.4499 281.6831 13.16589852121164
